STARLINK-11592 [DTC]    
1 63560U 25075N   25108.66668981 -.00919639  26150-3 -25552-2 0  9992
2 63560  43.0051 316.9581 0001898 252.7216 199.4598 15.92829730  2080
STARLINK-32953          
1 63561U 25075P   25108.66668981 -.00989576  29896-3 -27482-2 0  9994
2 63561  43.0051 316.9485 0001775 251.4457 204.5192 15.92851380  2096
STARLINK-32951          
1 63562U 25075Q   25108.66668981 -.01030430  32280-3 -28188-2 0  9997
2 63562  43.0049 316.9396 0001844 249.6889 209.7283 15.93144423  2092
STARLINK-32958          
1 63563U 25075R   25108.66668981 -.01015887  31397-3 -28054-2 0  9997
2 63563  43.0049 316.9455 0001916 255.1705 201.9771 15.92962523  2092
STARLINK-32928          
1 63564U 25075S   25108.66668981 -.01017297  31505-3 -27959-2 0  9999
2 63564  43.0049 316.9423 0001979 258.1041 200.2356 15.93053220  2090
STARLINK-32687          
1 63565U 25075T   25108.66668981 -.01033331  32477-3 -28121-2 0  9998
2 63565  43.0049 316.9368 0002019 250.0241 210.6124 15.93242566  2099
STARLINK-32950          
1 63566U 25075U   25108.66668981 -.01039330  32854-3 -28140-2 0  9994
2 63566  43.0050 316.9336 0001866 251.9137 209.9245 15.93340840  2099
STARLINK-32954          
1 63567U 25075V   25108.66668981 -.01064615  34392-3 -28543-2 0  9995
2 63567  43.0050 316.9281 0001954 254.3612 209.6929 15.93530145  2097
STARLINK-32940          
1 63568U 25075W   25108.66668981 -.01059657  34078-3 -28507-2 0  9997
2 63568  43.0051 316.9305 0001968 257.0412 206.1268 15.93464997  2098
